
# Worst residual: 2.11 km
# MJD 58876.000000 (2020 Jan 28  0:00)
2015-019C = NORAD 41929 = S509356 = WJ2AD07
1 41929U 15019C   20028.49919926  .00000000  00000-0  00000-0 0  7215
2 41929 021.7256 257.2593 5903790 103.3793 199.9674 00.27919394    01

# Worst residual: 13.50 km
# MJD 58877.000000 (2020 Jan 29  0:00)
2015-019C = NORAD 41929 = S509356 = WJ2AD07
1 41929U 15019C   20029.49919926  .00000000  00000-0  00000-0 0  7216
2 41929 021.7203 257.2231 5903813 103.3728 300.5572 00.27895129    02

# Worst residual: 21.73 km
# MJD 58878.000000 (2020 Jan 30  0:00)
2015-019C = NORAD 41929 = S509356 = WJ2AD07
1 41929U 15019C   20030.49919926  .00000000  00000-0  00000-0 0  7218
2 41929 021.7256 257.2276 5906006 103.4610 040.9367 00.27882490    01

# Worst residual: 3.75 km
# MJD 58879.000000 (2020 Jan 31  0:00)
2015-019C = NORAD 41929 = S509356 = WJ2AD07
1 41929U 15019C   20031.49919926  .00000000  00000-0  00000-0 0  7219
2 41929 021.7172 257.1533 5899739 103.5088 141.4971 00.27912115    03

# Worst residual: 1.29 km
# MJD 58880.000000 (2020 Feb  1  0:00)
2015-019C = NORAD 41929 = S509356 = WJ2AD07
1 41929U 15019C   20032.49919926  .00000000  00000-0  00000-0 0  7210
2 41929 021.7136 257.1159 5901613 103.5537 241.9795 00.27922343    05

# Worst residual: 10.86 km
# MJD 58881.000000 (2020 Feb  2  0:00)
2015-019C = NORAD 41929 = S509356 = WJ2AD07
1 41929U 15019C   20033.49919926  .00000000  00000-0  00000-0 0  7211
2 41929 021.7182 257.0532 5901448 103.6237 342.4785 00.27916363    05

# Worst residual: 8.67 km
# MJD 58882.000000 (2020 Feb  3  0:00)
2015-019C = NORAD 41929 = S509356 = WJ2AD07
1 41929U 15019C   20034.49919926  .00000000  00000-0  00000-0 0  7212
2 41929 021.7192 257.0078 5898212 103.7224 082.9171 00.27901225    08

# Worst residual: 2.44 km
# MJD 58883.000000 (2020 Feb  4  0:00)
2015-019C = NORAD 41929 = S509356 = WJ2AD07
1 41929U 15019C   20035.49919926  .00000000  00000-0  00000-0 0  7213
2 41929 021.7174 256.9527 5895216 103.7431 183.4929 00.27914673    05

# Worst residual: 6.34 km
# MJD 58884.000000 (2020 Feb  5  0:00)
2015-019C = NORAD 41929 = S509356 = WJ2AD07
1 41929U 15019C   20036.49919926  .00000000  00000-0  00000-0 0  7214
2 41929 021.7156 256.8978 5892838 103.8152 283.9291 00.27918141    04

# Worst residual: 17.11 km
# MJD 58885.000000 (2020 Feb  6  0:00)
2015-019C = NORAD 41929 = S509356 = WJ2AD07
1 41929U 15019C   20037.49919926  .00000000  00000-0  00000-0 0  7215
2 41929 021.7164 256.8535 5885254 103.8529 024.4172 00.27957127    07

# Worst residual: 3.89 km
# MJD 58886.000000 (2020 Feb  7  0:00)
2015-019C = NORAD 41929 = S509356 = WJ2AD07
1 41929U 15019C   20038.49919926  .00000000  00000-0  00000-0 0  7216
2 41929 021.7037 256.7438 5891379 103.9591 124.8656 00.27936866    01

# Worst residual: 9.31 km
# MJD 58887.000000 (2020 Feb  8  0:00)
2015-019C = NORAD 41929 = S509356 = WJ2AD07
1 41929U 15019C   20039.49919926  .00000000  00000-0  00000-0 0  7217
2 41929 021.6994 256.6999 5887753 103.9861 225.4792 00.27930144    06

# Worst residual: 14.77 km
# MJD 58888.000000 (2020 Feb  9  0:00)
2015-019C = NORAD 41929 = S509356 = WJ2AD07
1 41929U 15019C   20040.49919926  .00000000  00000-0  00000-0 0  7219
2 41929 021.6986 256.6612 5888446 103.9699 326.1058 00.27893438    06

# Worst residual: 11.85 km
# MJD 58889.000000 (2020 Feb 10  0:00)
2015-019C = NORAD 41929 = S509356 = WJ2AD07
1 41929U 15019C   20041.49919926  .00000000  00000-0  00000-0 0  7210
2 41929 021.6758 256.6584 5883266 103.9846 066.5935 00.27936979    07

# Worst residual: 16.43 km
# MJD 58890.000000 (2020 Feb 11  0:00)
2015-019C = NORAD 41929 = S509356 = WJ2AD07
1 41929U 15019C   20042.49919926  .00000000  00000-0  00000-0 0  7211
2 41929 021.6598 256.3178 5880159 104.4339 166.7579 00.27891661    01

# Worst residual: 6.73 km
# MJD 58891.000000 (2020 Feb 12  0:00)
2015-019C = NORAD 41929 = S509356 = WJ2AD07
1 41929U 15019C   20043.49919926  .00000000  00000-0  00000-0 0  7212
2 41929 021.7092 255.9456 5882122 104.8757 266.9542 00.27911856    07

# Worst residual: 21.21 km
# MJD 58892.000000 (2020 Feb 13  0:00)
2015-019C = NORAD 41929 = S509356 = WJ2AD07
1 41929U 15019C   20044.49919926  .00000000  00000-0  00000-0 0  7213
2 41929 021.7337 255.8770 5890713 105.0139 007.4389 00.27886368    05

# Worst residual: 11.98 km
# MJD 58893.000000 (2020 Feb 14  0:00)
2015-019C = NORAD 41929 = S509356 = WJ2AD07
1 41929U 15019C   20045.49919926  .00000000  00000-0  00000-0 0  7214
2 41929 021.7295 255.8399 5879821 105.0533 108.0627 00.27933816    04

# Worst residual: 9.45 km
# MJD 58894.000000 (2020 Feb 15  0:00)
2015-019C = NORAD 41929 = S509356 = WJ2AD07
1 41929U 15019C   20046.49919926  .00000000  00000-0  00000-0 0  7215
2 41929 021.7267 255.7957 5870800 105.0717 208.7163 00.27925154    03

# Worst residual: 11.35 km
# MJD 58895.000000 (2020 Feb 16  0:00)
2015-019C = NORAD 41929 = S509356 = WJ2AD07
1 41929U 15019C   20047.49919926  .00000000  00000-0  00000-0 0  7216
2 41929 021.7140 255.7738 5856873 105.0957 309.0581 00.27917636    05

# Worst residual: 3.00 km
# MJD 58896.000000 (2020 Feb 17  0:00)
2015-019C = NORAD 41929 = S509356 = WJ2AD07
1 41929U 15019C   20048.49919926  .00000000  00000-0  00000-0 0  7217
2 41929 021.7132 255.7188 5855551 105.1700 049.5017 00.27907966    09

# Worst residual: 3.49 km
# MJD 58897.000000 (2020 Feb 18  0:00)
2015-019C = NORAD 41929 = S509356 = WJ2AD07
1 41929U 15019C   20049.49919926  .00000000  00000-0  00000-0 0  7218
2 41929 021.7092 255.6278 5856673 105.2371 149.9952 00.27921582    07

# Worst residual: 5.04 km
# MJD 58898.000000 (2020 Feb 19  0:00)
2015-019C = NORAD 41929 = S509356 = WJ2AD07
1 41929U 15019C   20050.49919926  .00000000  00000-0  00000-0 0  7210
2 41929 021.7115 255.5359 5859129 105.3053 250.6004 00.27928532    09

# Worst residual: 15.99 km
# MJD 58899.000000 (2020 Feb 20  0:00)
2015-019C = NORAD 41929 = S509356 = WJ2AD07
1 41929U 15019C   20051.49919926  .00000000  00000-0  00000-0 0  7211
2 41929 021.7137 255.4873 5857374 105.3565 351.1261 00.27930891    04

# Worst residual: 10.20 km
# MJD 58900.000000 (2020 Feb 21  0:00)
2015-019C = NORAD 41929 = S509356 = WJ2AD07
1 41929U 15019C   20052.49919926  .00000000  00000-0  00000-0 0  7212
2 41929 021.7044 255.4448 5857591 105.3933 091.6308 00.27935509    08

# Worst residual: 1.65 km
# MJD 58901.000000 (2020 Feb 22  0:00)
2015-019C = NORAD 41929 = S509356 = WJ2AD07
1 41929U 15019C   20053.49919926  .00000000  00000-0  00000-0 0  7213
2 41929 021.7024 255.3924 5855937 105.5113 191.9704 00.27918900    08

# Worst residual: 15.28 km
# MJD 58902.000000 (2020 Feb 23  0:00)
2015-019C = NORAD 41929 = S509356 = WJ2AD07
1 41929U 15019C   20054.49919926  .00000000  00000-0  00000-0 0  7214
2 41929 021.7010 255.3420 5855857 105.5128 292.5772 00.27893976    09
